#dP2021  4 23 18  0  0.00000000      96 __u+U ITR00 EXT  IAC
## 2154 496800.00000000   900.00000000 59327 0.7500000000000
+  115   C06C07C08C09C10C11C12C13C14C16C19C20C21C22C23C24C25
+        C26C27C28C29C30C32C33C34C35C36C37C38C39C40C41C42C43
+        C44C45C46E01E02E03E04E05E07E08E09E11E12E13E14E15E18
+        E19E21E24E25E26E27E30E31E33E36G01G02G03G04G05G06G08
+        G09G10G12G13G14G15G16G17G18G19G20G21G22G23G24G25G26
+        G27G28G29G30G31G32J01J02J03R01R02R03R04R05R07R08R09
+        R11R12R13R14R15R16R17R18R19R20R21R22R24  0  0  0  0
++        10 10  7 11  8  8  9  9  8 10  9  9  8  9  9  7  9
++         8  8  9 10 10  9  9  8  9  9  8 10  9 11  8  8  9
++         8  9  8  7  9  8  8  8  7  8  7  7  8  7  9  8  8
++         9  9  7  7  8  7  7  7  7  7  7  7  8  8  7  8  8
++         7  6  8  8  7  7  8  8  7  8  7  8  7  8  7  7  7
++         7  8  8  6  7  8 12 11 10  7  8  9  8  8  8  9 10
++         7  7  9  8  8  9  8  7  9  9  8  8 10  0  0  0  0
%c M  cc GPS ccc cccc cccc cccc cccc ccccc ccccc ccccc ccccc
%c cc cc ccc ccc cccc cccc cccc cccc ccccc ccccc ccccc ccccc
%f  0.0000000  0.000000000  0.00000000000  0.000000000000000
%f  0.0000000  0.000000000  0.00000000000  0.000000000000000
%i    0    0    0    0      0      0      0      0         0
%i    0    0    0    0      0      0      0      0         0
/* IAC                                ULTRA-RAPID PREDICTION
/* S/V CLOCKS ARE ALIGNED TO GNSS TIME                      
/* G:C1WC2W R:C1PC2P E:C1XC5X C:C2IC6I J:C1CC2S             
/* PCV:IGS14_2148 OL/AL:FES2004  NONE     YN ORB:CoN CLK:CoN
*  2021 04 23 18 45  0.00000000
PC06  -8192.687145  25894.769738  32830.660562    309.330191
PC07 -24822.490298  26666.416953 -21396.908905   -150.670680
PC08 -15689.652420  37874.718665  -8900.710966   -891.105416
PC09   5535.887276  33883.124715  25058.065916    574.386522
PC10  -9156.903885  28501.026568 -29638.007874    -52.321235
PC11 -16576.510968 -22466.110868   -479.848432   -792.250961
PC12  -3675.741345 -22630.682818  15948.849597    914.409957
PC13  -7233.247909  41160.706577   4589.425166    233.383601
PC14 -15507.955728 -11945.597058 -19880.088850    545.560574
PC16  -4294.929008  27589.580907  31776.446161   -799.223728
PC19  23417.640045   6519.233997  13719.549626    809.441334
PC20   6714.211376  14919.436324  22625.225173   -949.232798
PC21  14838.394047 -14770.858296 -18413.186690   -948.980568
PC22  27036.689915  -5892.028830  -3468.174416   -963.886744
PC23 -18536.434039  10584.597148  17976.942707   -892.841937
PC24     51.367212 -24465.753799  13434.719611   -824.031939
PC25 -13777.521069  -8898.595925  22572.987375   -927.882787
PC26  11890.342550 -25156.334447  -2370.010080    916.856921
PC27  -4987.406746  17718.915407 -21000.629871    520.276607
PC28 -17886.938395    582.498316 -21411.622088    -82.735461
PC29  20879.850309  16037.406494   9252.864555    382.840519
PC30  11303.162703  23994.986797  -8722.699186    462.540912
PC32 -14741.789514  14918.581729  18436.608242   -943.781905
PC33 -23452.351518  -6409.076977 -13705.444339   -941.979004
PC34 -11759.026378 -23975.136444   8043.443684   -689.207054
PC35  18084.369993   -871.706935  21238.781088   -313.277600
PC36  13375.861457   9565.712552 -22523.868106   -729.697009
PC37 -12946.811036  24501.259226   3225.007336   -903.645601
PC38 -13334.499665  39669.167165  -4652.543239    144.195775
PC39    470.531030  29176.526212  30493.859318     30.563666
PC40 -15190.096242  23602.158079 -31486.082345    154.075224
PC41 -27094.049865   5859.647401   3262.382907   -947.126531
PC42  -5964.499410 -15107.195554 -22644.815327   -921.105400
PC43 -20738.032737 -16449.239840  -8802.286725   -698.864593
PC44   4683.644053 -17765.110915  20984.449175    152.694599
PC45  18428.192266 -10781.622707 -17978.101600    421.680383
PC46    693.930945  23970.592089 -14239.218530    302.737970
PE01  21215.840185 -20407.179335   3127.376720  -1093.185392
PE02 -21135.699068  20454.316008  -3256.215635    214.263303
PE03 -15781.575661  11153.253201  22430.165916   -423.368537
PE04  -5307.259870 -18731.694747 -22286.128801   -756.311493
PE05 -27902.880261  -3087.518731   9398.654370   -286.475813
PE07  23624.762422  15393.724476   8997.253786   -529.268800
PE08   5774.804126  18621.245643  22275.718689   6013.073141
PE09 -23851.043998 -15139.696173  -8856.154319   5691.055460
PE11 -13958.670294 -21277.445606 -15106.685782   6062.141539
PE12  -2881.807350 -29205.631079   3756.391426   5245.073321
PE13  13822.209330  21609.392492  14785.429907    415.432789
PE14  22006.279078   8489.833384   6815.030937  -1407.118932
PE15   3026.573122  29214.340764  -3723.090282    817.931569
PE18 -26435.579886   -629.722056 -18143.590371  -1539.623513
PE19  17781.721391  -9608.976547 -21615.507782    259.612999
PE21  24600.576905  -7901.111197 -14449.662090   -660.992228
PE24 -13213.868676 -10436.046612  24326.830732   -862.932827
PE25 -24558.279562   7732.865420  14601.105415   -531.789475
PE26  16525.036297    432.689104  24558.367343   1890.620733
PE27  13901.214043   9694.141726 -24269.483067    -17.506856
PE30  -5840.435862  21746.996585 -19216.729072   3001.275394
PE31   4904.003328 -21485.586593  19765.541978   -480.456799
PE33   9546.510114 -19594.992334  20025.025084   -467.852874
PE36 -16461.317844  -1271.296570 -24562.646897   -197.692365
PG01  13213.139805 -12019.070012  19281.320069    708.400502
PG02 -13231.278164 -13451.432483 -18021.096739   -598.278543
PG03  23160.482181 -12872.916547   -268.946318   -144.985888
PG04  18105.394177  -4036.173240 -19023.853307   -193.258995
PG05 -22362.550098   1327.228333 -14565.632803    -39.929892
PG06  -6529.108016 -23371.112232 -10668.352649      9.564239
PG08  23083.377398   3112.254832  13034.435665    -18.596856
PG09   8210.133357 -13043.302110 -21692.441771   -340.971559
PG10   -619.705247  16630.157405  20754.756654   -107.985474
PG12 -24528.425880   9719.039498   2010.393443    -31.748586
PG13 -22589.620925 -12431.789089   6522.794125    123.509496
PG14   2249.389421 -16997.636408  20267.928147     93.625241
PG15 -23395.324701   -468.218957  12527.825103   -154.158593
PG16  20467.707841   3714.004591 -17022.534398   -314.288785
PG17  -7891.645444 -19245.241505  16940.489410    431.193975
PG18  -5345.971394  25256.552436  -6111.582016    351.492306
PG19 -15398.237845 -19519.616505   9208.216430     -9.074216
PG20 -20960.060904  16017.893798    266.878755    522.876802
PG21  15392.082841  -3381.213715  22064.154545    113.162905
PG22  23575.763165  -7474.930042   9617.450079   -631.029947
PG23 -12116.424778  18660.240911  14452.705131    111.740727
PG24 -14942.884937   6522.277656  20660.888512     30.342117
PG25 -17657.873177  17318.345388  -9564.788872    124.181623
PG26  13110.234900   9895.326577 -20972.444833     76.134628
PG27  23576.531427  12385.397173   2478.946903   -117.974148
PG28  -1278.661940 -15724.696429  21948.303058    582.219461
PG29  -8538.954051  11992.949616 -22154.377855   -335.137340
PG30  -1108.580002 -26216.235542   3257.924311   -416.854073
PG31   8287.487067  21310.098626 -13194.867007   -113.303017
PG32  10985.961361  19024.071207  15157.144203     22.009248
PJ01 -30602.958569  22672.515018  23105.033525   -369.317616
PJ02 -34231.260984  24595.187423   5019.596099      6.228910
PJ03 -21640.429397  20262.072279 -25410.804934     -3.963436
PR01 -23601.286904  -4951.000918  -8334.057024     78.351455
PR02 -21835.857563   4434.775146  12411.334588    475.943290
PR03  -6394.524544  10331.621677  22469.548184     34.724498
PR04  12397.065611  10125.026083  19894.741268     83.713409
PR05  24346.862188   4486.979730   6204.790023     70.495248
PR07   5799.891821 -10385.442356 -22526.883061    -42.523969
PR08 -12480.004788 -10164.741787 -19721.944627    -58.670240
PR09  16604.104908 -15923.123180 -10928.726405    -10.592684
PR11  -1038.546750 -15885.174713  19935.170569     -0.287866
PR12 -12670.334047     99.471649  22157.291291    223.258526
PR13 -16517.025126  15635.222609  11530.736173    -53.817444
PR14 -10748.038573  22211.910632  -6484.544496     63.481740
PR15   1202.382577  15650.408742 -20089.991786    104.201896
PR16  13327.068080  -1415.256015 -21754.645367    -14.175878
PR17   1205.077579  19367.671042 -16532.232332    418.352519
PR18  10774.035655  23133.078392  -1023.567016     74.167677
PR19  14161.185285  15577.886714  14403.565259   -140.956920
PR20   9662.677202  -3731.959066  23316.100037    -47.854903
PR21  -1977.419000 -20043.850890  15663.307546   -203.877411
PR22 -11075.407834 -22917.723449    -90.830321   -109.262905
PR24  -9665.002625   4846.039616 -23088.944079     39.995548
EOF
